{
  "type": "FeatureCollection",
  "features": [
    {
      "type": "Feature",
      "properties": {
        "norad_id": 34681,
        "name": "COSMOS 2251 DEB",
        "group": "cosmos-2251-debris",
        "lat": -41.3574471930898,
        "lon": 111.36916639900718,
        "alt_km": 630.8033446777063,
        "timestamp": "2025-12-19T14:48:36.643055+00:00",
        "meta_object_name": "COSMOS 2251 DEB",
        "meta_object_id": "1993-036YB",
        "meta_epoch": "2025-12-19T06:15:58.040352",
        "meta_mean_motion": 14.83361506,
        "meta_eccentricity": 0.00256268,
        "meta_inclination": 74.0634,
        "meta_ra_of_asc_node": 277.5041,
        "meta_arg_of_pericenter": 333.282,
        "meta_mean_anomaly": 150.0203,
        "meta_ephemeris_type": 0,
        "meta_classification_type": "U",
        "meta_norad_cat_id": 34681,
        "meta_element_set_no": 999,
        "meta_rev_at_epoch": 89367,
        "meta_bstar": 0.001034446,
        "meta_mean_motion_dot": 8.505e-05,
        "meta_mean_motion_ddot": 0,
        "tle_line1": "1 34681U 93036YB  25353.26108843  .00008505  00000+0  10344-2 0  9994",
        "tle_line2": "2 34681  74.0634 277.5041 0025626 333.2820 150.0203 14.83361506893677"
      },
      "geometry": {
        "type": "Point",
        "coordinates": [
          111.36916639900718,
          -41.3574471930898
        ]
      }
    },
    {
      "type": "Feature",
      "properties": {
        "norad_id": 34682,
        "name": "COSMOS 2251 DEB",
        "group": "cosmos-2251-debris",
        "lat": 73.44477628004317,
        "lon": 175.58426672738304,
        "alt_km": 693.1060774534262,
        "timestamp": "2025-12-19T14:48:36.643066+00:00",
        "meta_object_name": "COSMOS 2251 DEB",
        "meta_object_id": "1993-036YC",
        "meta_epoch": "2025-12-19T06:24:40.896864",
        "meta_mean_motion": 14.58938586,
        "meta_eccentricity": 0.00180327,
        "meta_inclination": 74.0399,
        "meta_ra_of_asc_node": 70.5568,
        "meta_arg_of_pericenter": 203.0416,
        "meta_mean_anomaly": 214.3176,
        "meta_ephemeris_type": 0,
        "meta_classification_type": "U",
        "meta_norad_cat_id": 34682,
        "meta_element_set_no": 999,
        "meta_rev_at_epoch": 88781,
        "meta_bstar": 0.00050753808,
        "meta_mean_motion_dot": 2.356e-05,
        "meta_mean_motion_ddot": 0,
        "tle_line1": "1 34682U 93036YC  25353.26714001  .00002356  00000+0  50754-3 0  9992",
        "tle_line2": "2 34682  74.0399  70.5568 0018032 203.0416 214.3176 14.58938586887811"
      },
      "geometry": {
        "type": "Point",
        "coordinates": [
          175.58426672738304,
          73.44477628004317
        ]
      }
    },
    {
      "type": "Feature",
      "properties": {
        "norad_id": 34683,
        "name": "COSMOS 2251 DEB",
        "group": "cosmos-2251-debris",
        "lat": 24.779097005694773,
        "lon": 86.64124350635876,
        "alt_km": 689.7334264444853,
        "timestamp": "2025-12-19T14:48:36.643077+00:00",
        "meta_object_name": "COSMOS 2251 DEB",
        "meta_object_id": "1993-036YD",
        "meta_epoch": "2025-12-18T16:25:53.448960",
        "meta_mean_motion": 14.64562534,
        "meta_eccentricity": 0.00178443,
        "meta_inclination": 74.03,
        "meta_ra_of_asc_node": 80.837,
        "meta_arg_of_pericenter": 196.0346,
        "meta_mean_anomaly": 315.7254,
        "meta_ephemeris_type": 0,
        "meta_classification_type": "U",
        "meta_norad_cat_id": 34683,
        "meta_element_set_no": 999,
        "meta_rev_at_epoch": 88435,
        "meta_bstar": 0.00092177876,
        "meta_mean_motion_dot": 4.876e-05,
        "meta_mean_motion_ddot": 0,
        "tle_line1": "1 34683U 93036YD  25352.68464640  .00004876  00000+0  92178-3 0  9994",
        "tle_line2": "2 34683  74.0300  80.8370 0017844 196.0346 315.7254 14.64562534884354"
      },
      "geometry": {
        "type": "Point",
        "coordinates": [
          86.64124350635876,
          24.779097005694773
        ]
      }
    },
    {
      "type": "Feature",
      "properties": {
        "norad_id": 34685,
        "name": "COSMOS 2251 DEB",
        "group": "cosmos-2251-debris",
        "lat": 3.509836155732882,
        "lon": 136.71234356641702,
        "alt_km": 708.8013865878238,
        "timestamp": "2025-12-19T14:48:36.643087+00:00",
        "meta_object_name": "COSMOS 2251 DEB",
        "meta_object_id": "1993-036YF",
        "meta_epoch": "2025-12-19T04:04:55.574688",
        "meta_mean_motion": 14.57561178,
        "meta_eccentricity": 0.00142806,
        "meta_inclination": 74.0287,
        "meta_ra_of_asc_node": 136.5555,
        "meta_arg_of_pericenter": 241.1302,
        "meta_mean_anomaly": 297.9354,
        "meta_ephemeris_type": 0,
        "meta_classification_type": "U",
        "meta_norad_cat_id": 34685,
        "meta_element_set_no": 999,
        "meta_rev_at_epoch": 88625,
        "meta_bstar": 0.00076387663,
        "meta_mean_motion_dot": 3.453e-05,
        "meta_mean_motion_ddot": 0,
        "tle_line1": "1 34685U 93036YF  25353.17008767  .00003453  00000+0  76388-3 0  9990",
        "tle_line2": "2 34685  74.0287 136.5555 0014280 241.1302 297.9354 14.57561178886257"
      },
      "geometry": {
        "type": "Point",
        "coordinates": [
          136.71234356641702,
          3.509836155732882
        ]
      }
    },
    {
      "type": "Feature",
      "properties": {
        "norad_id": 34689,
        "name": "COSMOS 2251 DEB",
        "group": "cosmos-2251-debris",
        "lat": -23.24251275711878,
        "lon": -155.60228534062935,
        "alt_km": 791.094844150618,
        "timestamp": "2025-12-19T14:48:36.643097+00:00",
        "meta_object_name": "COSMOS 2251 DEB",
        "meta_object_id": "1993-036YK",
        "meta_epoch": "2025-12-15T15:20:16.539648",
        "meta_mean_motion": 14.04491905,
        "meta_eccentricity": 0.02275051,
        "meta_inclination": 74.0901,
        "meta_ra_of_asc_node": 218.3502,
        "meta_arg_of_pericenter": 286.6099,
        "meta_mean_anomaly": 101.262,
        "meta_ephemeris_type": 0,
        "meta_classification_type": "U",
        "meta_norad_cat_id": 34689,
        "meta_element_set_no": 999,
        "meta_rev_at_epoch": 84382,
        "meta_bstar": 0.0020174062,
        "meta_mean_motion_dot": 4.031e-05,
        "meta_mean_motion_ddot": 0,
        "tle_line1": "1 34689U 93036YK  25349.63908032  .00004031  00000+0  20174-2 0  9998",
        "tle_line2": "2 34689  74.0901 218.3502 0227505 286.6099 101.2620 14.04491905843829"
      },
      "geometry": {
        "type": "Point",
        "coordinates": [
          -155.60228534062935,
          -23.24251275711878
        ]
      }
    },
    {
      "type": "Feature",
      "properties": {
        "norad_id": 34721,
        "name": "COSMOS 2251 DEB",
        "group": "cosmos-2251-debris",
        "lat": 6.729029341811837,
        "lon": 132.36941961387257,
        "alt_km": 871.9748049459031,
        "timestamp": "2025-12-19T14:48:36.643108+00:00",
        "meta_object_name": "COSMOS 2251 DEB",
        "meta_object_id": "1993-036YP",
        "meta_epoch": "2025-12-16T09:23:35.751264",
        "meta_mean_motion": 13.96869832,
        "meta_eccentricity": 0.02234243,
        "meta_inclination": 73.923,
        "meta_ra_of_asc_node": 319.9132,
        "meta_arg_of_pericenter": 258.2136,
        "meta_mean_anomaly": 262.1516,
        "meta_ephemeris_type": 0,
        "meta_classification_type": "U",
        "meta_norad_cat_id": 34721,
        "meta_element_set_no": 999,
        "meta_rev_at_epoch": 85200,
        "meta_bstar": 0.00097212088,
        "meta_mean_motion_dot": 1.644e-05,
        "meta_mean_motion_ddot": 0,
        "tle_line1": "1 34721U 93036YP  25350.39138601  .00001644  00000+0  97212-3 0  9992",
        "tle_line2": "2 34721  73.9230 319.9132 0223424 258.2136 262.1516 13.96869832852008"
      },
      "geometry": {
        "type": "Point",
        "coordinates": [
          132.36941961387257,
          6.729029341811837
        ]
      }
    },
    {
      "type": "Feature",
      "properties": {
        "norad_id": 34722,
        "name": "COSMOS 2251 DEB",
        "group": "cosmos-2251-debris",
        "lat": 51.40930019477297,
        "lon": -14.94097024392396,
        "alt_km": 964.7028640907993,
        "timestamp": "2025-12-19T14:48:36.643118+00:00",
        "meta_object_name": "COSMOS 2251 DEB",
        "meta_object_id": "1993-036YQ",
        "meta_epoch": "2025-12-18T21:41:26.918592",
        "meta_mean_motion": 14.11953115,
        "meta_eccentricity": 0.0166832,
        "meta_inclination": 73.8725,
        "meta_ra_of_asc_node": 325.0727,
        "meta_arg_of_pericenter": 249.5424,
        "meta_mean_anomaly": 140.1647,
        "meta_ephemeris_type": 0,
        "meta_classification_type": "U",
        "meta_norad_cat_id": 34722,
        "meta_element_set_no": 999,
        "meta_rev_at_epoch": 86332,
        "meta_bstar": 0.00060950483,
        "meta_mean_motion_dot": 1.244e-05,
        "meta_mean_motion_ddot": 0,
        "tle_line1": "1 34722U 93036YQ  25352.90378378  .00001244  00000+0  60950-3 0  9994",
        "tle_line2": "2 34722  73.8725 325.0727 0166832 249.5424 140.1647 14.11953115863320"
      },
      "geometry": {
        "type": "Point",
        "coordinates": [
          -14.94097024392396,
          51.40930019477297
        ]
      }
    }
  ]
}